{
  "norad_id": 60531,
  "name": "HYPSO-2",
  "history": [
    {
      "epoch": "2026-04-12T23:12:50.032800Z",
      "apogee_km": 573.1619576093826,
      "perigee_km": 569.9511991761647,
      "latitude_deg": 2.1443960989769594e-05,
      "longitude_deg": -9.186458070325655,
      "height_km": 575.2699795521083,
      "semi_major_axis_km": 6949.693578392773,
      "eccentricity": 0.000231,
      "inclination_deg": 97.6852,
      "raan_deg": 180.1868,
      "arg_perigee_deg": 114.4188,
      "mean_anomaly_deg": 245.7276,
      "mean_motion_rev_day": 14.98491478
    },
    {
      "epoch": "2026-04-14T18:29:03.202944Z",
      "apogee_km": 573.0805776617026,
      "perigee_km": 569.9963116993531,
      "latitude_deg": -5.758374198283114e-05,
      "longitude_deg": 61.75822956567648,
      "height_km": 575.1647552544126,
      "semi_major_axis_km": 6949.675444680527,
      "eccentricity": 0.0002219,
      "inclination_deg": 97.6854,
      "raan_deg": 181.9634,
      "arg_perigee_deg": 111.9523,
      "mean_anomaly_deg": 248.1935,
      "mean_motion_rev_day": 14.98497343
    },
    {
      "epoch": "2026-04-15T18:31:23.547648Z",
      "apogee_km": 573.0683810633536,
      "perigee_km": 569.9896790120456,
      "latitude_deg": 9.702719607381402e-06,
      "longitude_deg": 61.17330680822969,
      "height_km": 575.1108095283229,
      "semi_major_axis_km": 6949.666030037699,
      "eccentricity": 0.0002215,
      "inclination_deg": 97.6856,
      "raan_deg": 182.9505,
      "arg_perigee_deg": 110.2196,
      "mean_anomaly_deg": 249.9265,
      "mean_motion_rev_day": 14.98500388
    },
    {
      "epoch": "2026-04-16T02:32:10.289760Z",
      "apogee_km": 573.0628572885425,
      "perigee_km": 569.9883265578756,
      "latitude_deg": 6.788284602414356e-05,
      "longitude_deg": -59.02154069965091,
      "height_km": 575.094258000464,
      "semi_major_axis_km": 6949.662591923209,
      "eccentricity": 0.0002212,
      "inclination_deg": 97.6855,
      "raan_deg": 183.2795,
      "arg_perigee_deg": 109.7287,
      "mean_anomaly_deg": 250.4175,
      "mean_motion_rev_day": 14.985015
    },
    {
      "epoch": "2026-04-17T15:23:45.069504Z",
      "apogee_km": 572.9972659496716,
      "perigee_km": 570.020037752417,
      "latitude_deg": 1.4470956807047938e-05,
      "longitude_deg": 108.08318081273435,
      "height_km": 575.023975523311,
      "semi_major_axis_km": 6949.645651851044,
      "eccentricity": 0.0002142,
      "inclination_deg": 97.6855,
      "raan_deg": 184.7929,
      "arg_perigee_deg": 108.2224,
      "mean_anomaly_deg": 251.9232,
      "mean_motion_rev_day": 14.98506979
    },
    {
      "epoch": "2026-04-18T10:37:37.013664Z",
      "apogee_km": 572.9704710066426,
      "perigee_km": 570.0336925234706,
      "latitude_deg": 6.710586182741526e-05,
      "longitude_deg": 179.61664712759975,
      "height_km": 574.9795208952772,
      "semi_major_axis_km": 6949.639081765056,
      "eccentricity": 0.00021129,
      "inclination_deg": 97.6855,
      "raan_deg": 185.5826,
      "arg_perigee_deg": 106.9302,
      "mean_anomaly_deg": 253.2153,
      "mean_motion_rev_day": 14.98509104
    },
    {
      "epoch": "2026-04-19T10:39:56.640384Z",
      "apogee_km": 572.9248574635667,
      "perigee_km": 570.0574408892153,
      "latitude_deg": -7.615920325220272e-06,
      "longitude_deg": 179.03454076434224,
      "height_km": 574.9332949106057,
      "semi_major_axis_km": 6949.62814917639,
      "eccentricity": 0.0002063,
      "inclination_deg": 97.6853,
      "raan_deg": 186.5695,
      "arg_perigee_deg": 105.8773,
      "mean_anomaly_deg": 254.2677,
      "mean_motion_rev_day": 14.9851264
    },
    {
      "epoch": "2026-04-21T10:44:35.401344Z",
      "apogee_km": 572.8269877174844,
      "perigee_km": 570.1153895944344,
      "latitude_deg": 8.813838410802215e-05,
      "longitude_deg": 177.87244979369268,
      "height_km": 574.86077344704,
      "semi_major_axis_km": 6949.608188655959,
      "eccentricity": 0.00019509,
      "inclination_deg": 97.6849,
      "raan_deg": 188.5434,
      "arg_perigee_deg": 104.5019,
      "mean_anomaly_deg": 255.6421,
      "mean_motion_rev_day": 14.98519096
    },
    {
      "epoch": "2026-04-22T10:46:54.573600Z",
      "apogee_km": 572.765365337279,
      "perigee_km": 570.1621838791261,
      "latitude_deg": 8.540654058151347e-05,
      "longitude_deg": 177.29233057883653,
      "height_km": 574.8233351350596,
      "semi_major_axis_km": 6949.600774608202,
      "eccentricity": 0.00018729,
      "inclination_deg": 97.6848,
      "raan_deg": 189.5304,
      "arg_perigee_deg": 103.7497,
      "mean_anomaly_deg": 256.3935,
      "mean_motion_rev_day": 14.98521494
    },
    {
      "epoch": "2026-04-23T04:24:36.512352Z",
      "apogee_km": 572.7194245920109,
      "perigee_km": 570.1961657137872,
      "latitude_deg": -1.5530949831115228e-06,
      "longitude_deg": -87.1326734422073,
      "height_km": 574.8010773209147,
      "semi_major_axis_km": 6949.594795152899,
      "eccentricity": 0.00018154,
      "inclination_deg": 97.6845,
      "raan_deg": 190.2541,
      "arg_perigee_deg": 103.4276,
      "mean_anomaly_deg": 256.7149,
      "mean_motion_rev_day": 14.98523428
    }
  ]
}